start=new Date('2023-07-01T00:00:00.000Z').valueOf();
sats=[{"REV_AT_EPOCH":"18724","RCS_SIZE":"LARGE","COUNTRY_CODE":"US","OBJECT_ID":"2020-006AG","BSTAR":"0.00144890000000","RA_OF_ASC_NODE":"39.1490","CLASSIFICATION_TYPE":"U","APOAPSIS":"547.969","REF_FRAME":"TEME","ELEMENT_SET_NO":"999","MEAN_ELEMENT_THEORY":"SGP4","OBJECT_NAME":"STARLINK-1172","LAUNCH_DATE":"2020-01-29","SEMIMAJOR_AXIS":"6925.268","GP_ID":"234484861","DECAY_DATE":null,"NORAD_CAT_ID":"45074","MEAN_MOTION_DOT":"0.00021381","TLE_LINE2":"2 45074  53.0551  39.1490 0001208 103.6231 256.4892 15.06426354187248","EPOCH":"2023-06-21T20:26:40.954560","TLE_LINE1":"1 45074U 20006AG  23172.85186290  .00021381  00000-0  14489-2 0  9995","ARG_OF_PERICENTER":"103.6231","EPHEMERIS_TYPE":"0","ECCENTRICITY":"0.00012080","CENTER_NAME":"EARTH","TIME_SYSTEM":"UTC","MEAN_ANOMALY":"256.4892","PERIAPSIS":"546.296","FILE":"3940263","SITE":"AFETR","PERIOD":"95.590","OBJECT_TYPE":"PAYLOAD","MEAN_MOTION_DDOT":"0.0000000000000","INCLINATION":"53.0551","MEAN_MOTION":"15.06426354"},{"SITE":"AFETR","FILE":"3940263","MEAN_ANOMALY":"225.8644","PERIAPSIS":"546.419","EPHEMERIS_TYPE":"0","ECCENTRICITY":"0.00010630","TIME_SYSTEM":"UTC","CENTER_NAME":"EARTH","TLE_LINE1":"1 45075U 20006AH  23172.81869014  .00016709  00000-0  11374-2 0  9992","ARG_OF_PERICENTER":"134.2432","TLE_LINE2":"2 45075  53.0540  39.2977 0001063 134.2432 225.8644 15.06419118187245","EPOCH":"2023-06-21T19:38:54.828096","NORAD_CAT_ID":"45075","MEAN_MOTION_DOT":"0.00016709","MEAN_MOTION_DDOT":"0.0000000000000","INCLINATION":"53.0540","MEAN_MOTION":"15.06419118","OBJECT_TYPE":"PAYLOAD","PERIOD":"95.591","CLASSIFICATION_TYPE":"U","RA_OF_ASC_NODE":"39.2977","OBJECT_ID":"2020-006AH","BSTAR":"0.00113740000000","COUNTRY_CODE":"US","RCS_SIZE":"LARGE","REV_AT_EPOCH":"18724","GP_ID":"234485108","SEMIMAJOR_AXIS":"6925.290","DECAY_DATE":null,"LAUNCH_DATE":"2020-01-29","OBJECT_NAME":"STARLINK-1174","MEAN_ELEMENT_THEORY":"SGP4","ELEMENT_SET_NO":"999","APOAPSIS":"547.891","REF_FRAME":"TEME"},{"PERIAPSIS":"546.399","MEAN_ANOMALY":"257.9735","FILE":"3940263","SITE":"AFETR","MEAN_MOTION_DOT":"0.00018551","NORAD_CAT_ID":"45076","EPOCH":"2023-06-21T19:48:10.095840","TLE_LINE2":"2 45076  53.0540  39.2613 0001085 102.1375 257.9735 15.06420625187249","ARG_OF_PERICENTER":"102.1375","TLE_LINE1":"1 45076U 20006AJ  23172.82511685  .00018551  00000-0  12603-2 0  9995","CENTER_NAME":"EARTH","TIME_SYSTEM":"UTC","ECCENTRICITY":"0.00010850","EPHEMERIS_TYPE":"0","PERIOD":"95.591","OBJECT_TYPE":"PAYLOAD","MEAN_MOTION":"15.06420625","INCLINATION":"53.0540","MEAN_MOTION_DDOT":"0.0000000000000","RA_OF_ASC_NODE":"39.2613","CLASSIFICATION_TYPE":"U","REV_AT_EPOCH":"18724","RCS_SIZE":"LARGE","COUNTRY_CODE":"US","BSTAR":"0.00126030000000","OBJECT_ID":"2020-006AJ","OBJECT_NAME":"STARLINK-1180","LAUNCH_DATE":"2020-01-29","DECAY_DATE":null,"GP_ID":"234485357","SEMIMAJOR_AXIS":"6925.285","REF_FRAME":"TEME","APOAPSIS":"547.902","ELEMENT_SET_NO":"999","MEAN_ELEMENT_THEORY":"SGP4"},{"LAUNCH_DATE":"2020-01-29","OBJECT_NAME":"STARLINK-1177","DECAY_DATE":null,"GP_ID":"234484611","SEMIMAJOR_AXIS":"6925.315","ELEMENT_SET_NO":"999","REF_FRAME":"TEME","APOAPSIS":"548.082","MEAN_ELEMENT_THEORY":"SGP4","RA_OF_ASC_NODE":"39.1826","CLASSIFICATION_TYPE":"U","RCS_SIZE":"LARGE","REV_AT_EPOCH":"18723","BSTAR":"0.00085602000000","OBJECT_ID":"2020-006AL","COUNTRY_CODE":"US","PERIOD":"95.591","INCLINATION":"53.0548","MEAN_MOTION":"15.06410916","MEAN_MOTION_DDOT":"0.0000000000000","OBJECT_TYPE":"PAYLOAD","PERIAPSIS":"546.278","MEAN_ANOMALY":"285.5724","SITE":"AFETR","FILE":"3940263","EPOCH":"2023-06-21T20:16:03.047808","TLE_LINE2":"2 45078  53.0548  39.1826 0001302  74.5408 285.5724 15.06410916187231","MEAN_MOTION_DOT":"0.00012496","NORAD_CAT_ID":"45078","CENTER_NAME":"EARTH","TIME_SYSTEM":"UTC","EPHEMERIS_TYPE":"0","ECCENTRICITY":"0.00013020","ARG_OF_PERICENTER":"74.5408","TLE_LINE1":"1 45078U 20006AL  23172.84447972  .00012496  00000-0  85602-3 0  9998"},{"MEAN_ANOMALY":"258.5246","PERIAPSIS":"546.404","SITE":"AFETR","FILE":"3940263","TLE_LINE2":"2 45079  53.0544  39.2768 0001074 101.5864 258.5246 15.06421369187230","EPOCH":"2023-06-21T19:42:51.443136","NORAD_CAT_ID":"45079","MEAN_MOTION_DOT":"0.00016140","ECCENTRICITY":"0.00010740","EPHEMERIS_TYPE":"0","TIME_SYSTEM":"UTC","CENTER_NAME":"EARTH","TLE_LINE1":"1 45079U 20006AM  23172.82142874  .00016140  00000-0  10993-2 0  9990","ARG_OF_PERICENTER":"101.5864","PERIOD":"95.591","MEAN_MOTION_DDOT":"0.0000000000000","INCLINATION":"53.0544","MEAN_MOTION":"15.06421369","OBJECT_TYPE":"PAYLOAD","RA_OF_ASC_NODE":"39.2768","CLASSIFICATION_TYPE":"U","RCS_SIZE":"LARGE","REV_AT_EPOCH":"18723","OBJECT_ID":"2020-006AM","BSTAR":"0.00109930000000","COUNTRY_CODE":"US","LAUNCH_DATE":"2020-01-29","OBJECT_NAME":"STARLINK-1149","DECAY_DATE":null,"GP_ID":"234484361","SEMIMAJOR_AXIS":"6925.283","ELEMENT_SET_NO":"999","APOAPSIS":"547.892","REF_FRAME":"TEME","MEAN_ELEMENT_THEORY":"SGP4"},{"PERIOD":"95.591","MEAN_MOTION_DDOT":"0.0000000000000","INCLINATION":"53.0542","MEAN_MOTION":"15.06420181","OBJECT_TYPE":"PAYLOAD","MEAN_ANOMALY":"293.3577","PERIAPSIS":"546.329","SITE":"AFETR","FILE":"3940263","TLE_LINE2":"2 45080  53.0542  39.2489 0001188  66.7537 293.3577 15.06420181187241","EPOCH":"2023-06-21T19:54:50.749920","NORAD_CAT_ID":"45080","MEAN_MOTION_DOT":"0.00020734","ECCENTRICITY":"0.00011880","EPHEMERIS_TYPE":"0","TIME_SYSTEM":"UTC","CENTER_NAME":"EARTH","TLE_LINE1":"1 45080U 20006AN  23172.82975405  .00020734  00000-0  14060-2 0  9999","ARG_OF_PERICENTER":"66.7537","LAUNCH_DATE":"2020-01-29","OBJECT_NAME":"STARLINK-1153","GP_ID":"234485609","SEMIMAJOR_AXIS":"6925.287","DECAY_DATE":null,"ELEMENT_SET_NO":"999","APOAPSIS":"547.974","REF_FRAME":"TEME","MEAN_ELEMENT_THEORY":"SGP4","RA_OF_ASC_NODE":"39.2489","CLASSIFICATION_TYPE":"U","RCS_SIZE":"LARGE","REV_AT_EPOCH":"18724","OBJECT_ID":"2020-006AN","BSTAR":"0.00140600000000","COUNTRY_CODE":"US"},{"RA_OF_ASC_NODE":"39.3457","CLASSIFICATION_TYPE":"U","RCS_SIZE":"LARGE","REV_AT_EPOCH":"18724","OBJECT_ID":"2020-006AP","BSTAR":"0.00138760000000","COUNTRY_CODE":"US","LAUNCH_DATE":"2020-01-29","OBJECT_NAME":"STARLINK-1151","SEMIMAJOR_AXIS":"6925.269","GP_ID":"234485858","DECAY_DATE":null,"ELEMENT_SET_NO":"999","APOAPSIS":"547.905","REF_FRAME":"TEME","MEAN_ELEMENT_THEORY":"SGP4","MEAN_ANOMALY":"244.1651","PERIAPSIS":"546.363","SITE":"AFETR","FILE":"3940263","TLE_LINE2":"2 45081  53.0537  39.3457 0001113 115.9453 244.1651 15.06426020187249","EPOCH":"2023-06-21T19:21:37.585728","NORAD_CAT_ID":"45081","MEAN_MOTION_DOT":"0.00020462","EPHEMERIS_TYPE":"0","ECCENTRICITY":"0.00011130","TIME_SYSTEM":"UTC","CENTER_NAME":"EARTH","TLE_LINE1":"1 45081U 20006AP  23172.80668502  .00020462  00000-0  13876-2 0  9997","ARG_OF_PERICENTER":"115.9453","PERIOD":"95.590","MEAN_MOTION_DDOT":"0.0000000000000","INCLINATION":"53.0537","MEAN_MOTION":"15.06426020","OBJECT_TYPE":"PAYLOAD"},{"ELEMENT_SET_NO":"999","REF_FRAME":"TEME","APOAPSIS":"547.993","MEAN_ELEMENT_THEORY":"SGP4","LAUNCH_DATE":"2020-01-29","OBJECT_NAME":"STARLINK-1160","DECAY_DATE":null,"GP_ID":"234484111","SEMIMAJOR_AXIS":"6925.309","REV_AT_EPOCH":"18723","RCS_SIZE":"LARGE","BSTAR":"0.00089020000000","OBJECT_ID":"2020-006AQ","COUNTRY_CODE":"US","RA_OF_ASC_NODE":"39.3917","CLASSIFICATION_TYPE":"U","PERIOD":"95.591","INCLINATION":"53.0548","MEAN_MOTION":"15.06412910","MEAN_MOTION_DDOT":"0.0000000000000","OBJECT_TYPE":"PAYLOAD","EPOCH":"2023-06-21T19:05:42.863136","TLE_LINE2":"2 45082  53.0548  39.3917 0001182  90.8208 269.2917 15.06412910187233","MEAN_MOTION_DOT":"0.00013007","NORAD_CAT_ID":"45082","CENTER_NAME":"EARTH","TIME_SYSTEM":"UTC","ECCENTRICITY":"0.00011820","EPHEMERIS_TYPE":"0","ARG_OF_PERICENTER":"90.8208","TLE_LINE1":"1 45082U 20006AQ  23172.79563499  .00013007  00000-0  89020-3 0  9997","PERIAPSIS":"546.355","MEAN_ANOMALY":"269.2917","SITE":"AFETR","FILE":"3940263"},{"MEAN_MOTION_DDOT":"0.0000000000000","MEAN_MOTION":"15.06423103","INCLINATION":"53.0547","OBJECT_TYPE":"PAYLOAD","PERIOD":"95.591","ECCENTRICITY":"0.00013070","EPHEMERIS_TYPE":"0","CENTER_NAME":"EARTH","TIME_SYSTEM":"UTC","TLE_LINE1":"1 45083U 20006AR  23172.82791525  .00021550  00000-0  14603-2 0  9991","ARG_OF_PERICENTER":"74.4267","TLE_LINE2":"2 45083  53.0547  59.2636 0001307  74.4267 285.6866 15.06423103186964","EPOCH":"2023-06-21T19:52:11.877600","NORAD_CAT_ID":"45083","MEAN_MOTION_DOT":"0.00021550","SITE":"AFETR","FILE":"3940263","MEAN_ANOMALY":"285.6866","PERIAPSIS":"546.238","MEAN_ELEMENT_THEORY":"SGP4","ELEMENT_SET_NO":"999","APOAPSIS":"548.048","REF_FRAME":"TEME","GP_ID":"234484862","SEMIMAJOR_AXIS":"6925.278","DECAY_DATE":null,"LAUNCH_DATE":"2020-01-29","OBJECT_NAME":"STARLINK-1190","OBJECT_ID":"2020-006AR","BSTAR":"0.00146030000000","COUNTRY_CODE":"US","RCS_SIZE":"LARGE","REV_AT_EPOCH":"18696","CLASSIFICATION_TYPE":"U","RA_OF_ASC_NODE":"59.2636"},{"MEAN_MOTION_DDOT":"0.0000000000000","INCLINATION":"53.0548","MEAN_MOTION":"15.06433621","OBJECT_TYPE":"PAYLOAD","PERIOD":"95.590","ECCENTRICITY":"0.00011380","EPHEMERIS_TYPE":"0","TIME_SYSTEM":"UTC","CENTER_NAME":"EARTH","TLE_LINE1":"1 45084U 20006AS  23172.87581633  .00017810  00000-0  12104-2 0  9992","ARG_OF_PERICENTER":"104.5393","TLE_LINE2":"2 45084  53.0548  19.0424 0001138 104.5393 255.5722 15.06433621187539","EPOCH":"2023-06-21T21:01:10.530912","NORAD_CAT_ID":"45084","MEAN_MOTION_DOT":"0.00017810","SITE":"AFETR","FILE":"3940263","MEAN_ANOMALY":"255.5722","PERIAPSIS":"546.322","MEAN_ELEMENT_THEORY":"SGP4","ELEMENT_SET_NO":"999","APOAPSIS":"547.899","REF_FRAME":"TEME","GP_ID":"234485109","DECAY_DATE":null,"SEMIMAJOR_AXIS":"6925.246","LAUNCH_DATE":"2020-01-29","OBJECT_NAME":"STARLINK-1173","OBJECT_ID":"2020-006AS","BSTAR":"0.00121040000000","COUNTRY_CODE":"US","RCS_SIZE":"LARGE","REV_AT_EPOCH":"18753","CLASSIFICATION_TYPE":"U","RA_OF_ASC_NODE":"19.0424"}];
